COMMENT,ORIGINATOR,NORAD_CAT_ID,OBJECT_NAME,OBJECT_TYPE,CLASSIFICATION_TYPE,INTLDES,EPOCH,EPOCH_MICROSECONDS,MEAN_MOTION,ECCENTRICITY,INCLINATION,RA_OF_ASC_NODE,ARG_OF_PERICENTER,MEAN_ANOMALY,EPHEMERIS_TYPE,ELEMENT_SET_NO,REV_AT_EPOCH,BSTAR,MEAN_MOTION_DOT,MEAN_MOTION_DDOT,FILE,TLE_LINE0,TLE_LINE1,TLE_LINE2,OBJECT_ID,OBJECT_NUMBER,SEMIMAJOR_AXIS,PERIOD,APOGEE,PERIGEE
"GENERATED VIA SPACETRACK.ORG API","JSPOC","2741","THOR BURNER 2 R/B","ROCKET BODY","U","67010B","2016-01-09 22:40:36","206400","14.27764784","0.0054078","99.0202","159.2808","159.9937","200.338","0","999","54127","3.6668e-05","4.5e-07","0","1978726","0 THOR BURNER 2 R/B","1  2741U 67010B   16009.94486350 +.00000045 +00000-0 +36668-4 0  9995","2  2741 099.0202 159.2808 0054078 159.9937 200.3380 14.27764784541273","1967-010B","2741","7177.348","100.856","838.027","760.400"
"GENERATED VIA SPACETRACK.ORG API","JSPOC","23711","SURFSAT","PAYLOAD","U","95059B","2016-01-09 22:40:38","298144","13.12679076","0.0368492","100.5103","357.8357","64.8783","316.2211","0","999","96682","7.0383e-05","-7e-08","0","1978726","0 SURFSAT","1 23711U 95059B   16009.94488771 -.00000007 +00000-0 +70383-4 0  9999","2 23711 100.5103 357.8357 0368492 064.8783 316.2211 13.12679076966821","1995-059B","23711","7590.950","109.699","1492.535","933.094"
"GENERATED VIA SPACETRACK.ORG API","JSPOC","35579","FALCON 1 R/B","ROCKET BODY","U","09037B","2016-01-09 22:40:38","729280","14.77237027","0.0047421","9.0447","258.0374","181.2888","284.1624","0","999","34992","7.416e-05","1.181e-05","0","1978726","0 FALCON 1 R/B","1 35579U 09037B   16009.94489270 +.00001181 +00000-0 +74160-4 0  9990","2 35579 009.0447 258.0374 0047421 181.2888 284.1624 14.77237027349922","2009-037B","35579","7016.196","97.479","671.332","604.789"
"GENERATED VIA SPACETRACK.ORG API","JSPOC","29479","HINODE (SOLAR B)","PAYLOAD","U","06041A","2016-01-09 22:40:41","918304","14.64609812","0.0018414","98.1538","12.6646","68.4512","291.8651","0","999","49664","4.9072e-05","2.13e-06","0","1978726","0 HINODE (SOLAR B)","1 29479U 06041A   16009.94492961 +.00000213 +00000-0 +49072-4 0  9994","2 29479 098.1538 012.6646 0018414 068.4512 291.8651 14.64609812496648","2006-041A","29479","7056.465","98.319","691.324","665.336"
"GENERATED VIA SPACETRACK.ORG API","JSPOC","31123","SL-24 R/B","ROCKET BODY","U","07012G","2016-01-09 22:40:48","960768","14.12494302","0.0311817","98.02","173.3212","314.7185","200.1803","0","999","45007","1.6606e-05","2e-08","0","1978726","0 SL-24 R/B","1 31123U 07012G   16009.94501112 +.00000002 +00000-0 +16606-4 0  9994","2 31123 098.0200 173.3212 0311817 314.7185 200.1803 14.12494302450070","2007-012G","31123","7228.985","101.947","1076.262","625.438"
"GENERATED VIA SPACETRACK.ORG API","JSPOC","27422","IDEFIX/ARIANE 42P","PAYLOAD","U","02021B","2016-01-09 22:40:52","475520","14.29226921","0.0012158","98.2402","33.1919","356.4216","3.6878","0","999","71368","1.8926e-05","7e-08","0","1978726","0 IDEFIX/ARIANE 42P","1 27422U 02021B   16009.94505180 +.00000007 +00000-0 +18926-4 0  9997","2 27422 098.2402 033.1919 0012158 356.4216 003.6878 14.29226921713689","2002-021B","27422","7172.453","100.753","803.038","785.597"
"GENERATED VIA SPACETRACK.ORG API","JSPOC","40311","KUAIZHOU 2 (KZ-2)","PAYLOAD","U","14073A","2016-01-09 22:40:53","895936","15.87881809","0.0020053","96.4985","114.7627","58.237","33.0694","0","999","6599","0.00056566","0.00153401","9.9126e-06","1978311","0 KUAIZHOU 2 (KZ-2)","1 40311U 14073A   16009.94506824  .00153401  99126-5  56566-3 0  9995","2 40311  96.4985 114.7627 0020053  58.2370  33.0694 15.87881809 65994","2014-073A","40311","6686.359","90.686","321.632","294.816"
"GENERATED VIA SPACETRACK.ORG API","JSPOC","36123","CZ-4C R/B","ROCKET BODY","U","09072C","2016-01-09 22:40:54","334848","13.4607426","0.0157574","100.5144","187.2173","97.6134","21.6069","0","999","29811","7.6822e-05","2e-08","0","1978726","0 CZ-4C R/B","1 36123U 09072C   16009.94507332 +.00000002 +00000-0 +76822-4 0  9993","2 36123 100.5144 187.2173 0157574 097.6134 021.6069 13.46074260298118","2009-072C","36123","7464.874","106.977","1204.366","969.112"
"GENERATED VIA SPACETRACK.ORG API","JSPOC","26546","MEGSAT 1","PAYLOAD","U","00057B","2016-01-09 22:40:57","487584","14.89988223","0.0045167","64.5534","175.6382","289.3008","70.322","0","999","82853","7.8554e-05","6.12e-06","0","1978379","0 MEGSAT 1","1 26546U 00057B   16009.94510981  .00000612  00000-0  78554-4 0  9990","2 26546  64.5534 175.6382 0045167 289.3008  70.3220 14.89988223828531","2000-057B","26546","6976.109","96.645","629.483","566.465"
"GENERATED VIA SPACETRACK.ORG API","JSPOC","36036","SMOS","PAYLOAD","U","09059A","2016-01-09 22:40:58","13760","14.39744805","0.0001135","98.4421","199.1036","86.0122","274.1196","0","999","32504","6.7939e-05","1.69e-06","0","1978726","0 SMOS","1 36036U 09059A   16009.94511590 +.00000169 +00000-0 +67939-4 0  9995","2 36036 098.4421 199.1036 0001135 086.0122 274.1196 14.39744805325045","2009-059A","36036","7137.478","100.017","760.153","758.533"
"GENERATED VIA SPACETRACK.ORG API","JSPOC","37747","PSLV R/B","ROCKET BODY","U","11034B","2016-01-09 22:40:59","895552","4.03219407","0.6001035","17.9024","207.0166","38.3889","351.9472","0","999","6470","0.00077244","3.477e-05","0","1978414","0 PSLV R/B","1 37747U 11034B   16009.94513768  .00003477  00000-0  77244-3 0  9994","2 37747  17.9024 207.0166 6001035  38.3889 351.9472  4.03219407 64707","2011-034B","37747","16674.041","357.125","20302.057","289.756"
"GENERATED VIA SPACETRACK.ORG API","JSPOC","32478","EXPRESS AM-33","PAYLOAD","U","08003A","2016-01-09 22:40:59","721024","1.00269555","7.74e-05","0.0413","213.4836","171.3223","160.8276","0","999","2940","0","-2.76e-06","0","1978726","0 EXPRESS AM-33","1 32478U 08003A   16009.94513566 -.00000276 +00000-0 +00000-0 0  9996","2 32478 000.0413 213.4836 0000774 171.3223 160.8276 01.00269555029406","2008-003A","32478","42165.357","1436.128","35790.485","35783.958"
"GENERATED VIA SPACETRACK.ORG API","JSPOC","37747","PSLV R/B","ROCKET BODY","U","11034B","2016-01-09 22:40:59","895552","4.03219407","0.6001035","17.9024","207.0166","38.3889","351.9472","0","999","6479","0.00077244","3.477e-05","0","1978726","0 PSLV R/B","1 37747U 11034B   16009.94513768 +.00003477 +00000-0 +77244-3 0  9994","2 37747 017.9024 207.0166 6001035 038.3889 351.9472 04.03219407064796","2011-034B","37747","16674.041","357.125","20302.057","289.756"
"GENERATED VIA SPACETRACK.ORG API","JSPOC","22824","STELLA","PAYLOAD","U","93061B","2016-01-09 22:41:01","887936","14.27360207","0.0007262","98.7469","318.5071","126.1519","331.4227","0","999","16106","-1.3234e-06","-4.8e-07","0","1978726","0 STELLA","1 22824U 93061B   16009.94516074 -.00000048 +00000-0 -13234-5 0  9991","2 22824 098.7469 318.5071 0007262 126.1519 331.4227 14.27360207161068","1993-061B","22824","7178.705","100.885","805.783","795.357"
"GENERATED VIA SPACETRACK.ORG API","JSPOC","1807","THOR AGENA B R/B","ROCKET BODY","U","65098C","2016-01-09 22:41:06","184608","12.2328138","0.1353055","79.8351","13.0753","161.5109","204.0538","0","999","20675","3.2355e-05","1.12e-06","0","1978726","0 THOR AGENA B R/B","1  1807U 65098C   16009.94521047 +.00000112 +00000-0 +32355-4 0  9998","2  1807 079.8351 013.0753 1353055 161.5109 204.0538 12.23281380206757","1965-098C","1807","7956.418","117.716","2654.830","501.735"
"GENERATED VIA SPACETRACK.ORG API","JSPOC","730","SOLRAD 7A","PAYLOAD","U","64001D","2016-01-09 22:41:07","835712","13.9554064","0.0016654","69.905","177.1273","250.7669","275.4512","0","999","52892","1.4018e-05","-3.5e-07","0","1978726","0 SOLRAD 7A","1   730U 64001D   16009.94522958 -.00000035 +00000-0 +14018-4 0  9998","2   730 069.9050 177.1273 0016654 250.7669 275.4512 13.95540640528925","1964-001D","730","7287.415","103.185","921.416","897.143"
"GENERATED VIA SPACETRACK.ORG API","JSPOC","17304","SL-8 R/B","ROCKET BODY","U","87006B","2016-01-09 22:41:09","616416","14.37547423","0.0030893","74.0601","334.1894","302.8906","56.9276","0","999","51774","2.7493e-05","5.6e-07","0","1978726","0 SL-8 R/B","1 17304U 87006B   16009.94525019 +.00000056 +00000-0 +27493-4 0  9997","2 17304 074.0601 334.1894 0030893 302.8906 056.9276 14.37547423517747","1987-006B","17304","7144.750","100.170","788.687","744.543"
"GENERATED VIA SPACETRACK.ORG API","JSPOC","20046","SL-8 R/B","ROCKET BODY","U","89042B","2016-01-09 22:41:19","102272","13.78045287","0.0043442","82.9381","333.8543","98.1912","322.9996","0","999","33684","-2.4526e-05","-9e-08","0","1978726","0 SL-8 R/B","1 20046U 89042B   16009.94535998 -.00000009 +00000-0 -24526-4 0  9997","2 20046 082.9381 333.8543 0043442 098.1912 322.9996 13.78045287336840","1989-042B","20046","7348.965","104.495","1002.755","938.904"
"GENERATED VIA SPACETRACK.ORG API","JSPOC","18123","DMSP 5D-2 F8 (USA 26)","PAYLOAD","U","87053A","2016-01-09 22:41:24","178272","14.18465042","0.0012897","98.7383","201.6551","320.2886","39.7345","0","999","47636","6.1823e-05","8.4e-07","0","1978726","0 DMSP 5D-2 F8 (USA 26)","1 18123U 87053A   16009.94541873 +.00000084 +00000-0 +61823-4 0  9991","2 18123 098.7383 201.6551 0012897 320.2886 039.7345 14.18465042476363","1987-053A","18123","7208.685","101.518","839.847","821.253"
"GENERATED VIA SPACETRACK.ORG API","JSPOC","11327","SL-8 R/B","ROCKET BODY","U","79030B","2016-01-09 22:41:26","601792","13.76974433","0.0026967","82.9505","325.1083","204.8375","214.7974","0","999","84678","-1.1105e-05","4e-08","0","1978726","0 SL-8 R/B","1 11327U 79030B   16009.94544678 +.00000004 +00000-0 -11105-4 0  9993","2 11327 082.9505 325.1083 0026967 204.8375 214.7974 13.76974433846780","1979-030B","11327","7352.774","104.577","994.467","954.811"
